IRIDIUM 106             
1 41917U 17003A   24044.50089793  .00000442  00000+0  15068-3 0  9990
2 41917  86.3923  85.7262 0002242 102.8166 257.3280 14.34222118370701
IRIDIUM 103             
1 41918U 17003B   24044.55798792  .00000103  00000+0  29613-4 0  9998
2 41918  86.3922  85.6045 0001913  88.1329 272.0086 14.34217995370738
IRIDIUM 109             
1 41919U 17003C   24044.56432603  .00000489  00000+0  16745-3 0  9994
2 41919  86.3931  85.6473 0002299  88.5857 271.5602 14.34217192370706
IRIDIUM 105             
1 41921U 17003E   24044.50328901  .00000300  00000+0  10008-3 0  9994
2 41921  86.3932  54.0109 0002133  88.3179 271.8261 14.34213767372630
IRIDIUM 104             
1 41922U 17003F   24044.61506138  .00000612  00000+0  21132-3 0  9993
2 41922  86.3924  85.5975 0002159  88.3230 271.8213 14.34223857370780
IRIDIUM 114             
1 41923U 17003G   24044.62141168 -.00000089  00000+0 -38715-4 0  9999
2 41923  86.3920  85.5807 0002069 100.1134 260.0296 14.34216460370768
